TITAN 4B R/B            
1 26474U 00047B   22302.33399625  .00002635  00000+0  22982-3 0  9994
2 26474  67.9947 216.3493 0057546 323.2830  36.4375 14.97283926208484
ENVISAT                 
1 27386U 02009A   22302.40688013  .00000198  00000+0  78812-4 0  9993
2 27386  98.2006 277.3374 0001278  89.3686  84.2321 14.38174999 82717
IDEFIX & ARIANE 42P R/B 
1 27422U 02021B   22302.35233982  .00000255  00000+0  11641-3 0  9993
2 27422  98.4631 244.4043 0011632 197.2884 162.7904 14.29474560 68581
AQUA                    
1 27424U 02022A   22302.38467667  .00000861  00000+0  19976-3 0  9990
2 27424  98.2596 243.0793 0001331 104.6203   6.1150 14.57464841 89691
CZ-4B R/B               
1 27432U 02024C   22302.03918028  .00000027  00000+0  38154-4 0  9999
2 27432  99.0522 328.9816 0049427 259.3778 153.5492 14.14158690 55706
MIDORI II (ADEOS-II)    
1 27597U 02056A   22302.33843653  .00000270  00000+0  12719-3 0  9998
2 27597  98.6198 244.2719 0001362  36.2658 323.8615 14.27671933 35070
H-2A R/B                
1 27601U 02056E   22302.00184223  .00000249  00000+0  10466-3 0  9992
2 27601  98.1816 301.0821 0071086 222.2486 196.7601 14.32138204 38294
CZ-4B R/B               
1 28059U 03049C   22302.39937306  .00000453  00000+0  12021-3 0  9999
2 28059  98.5309 241.3663 0050419  19.4704 340.8402 14.52867362  8260
CZ-2C R/B               
1 28222U 04012C   22302.41202823  .00007052  00000+0  38736-3 0  9997
2 28222  97.7867 285.9175 0042498 315.2519 207.2332 15.13664769 16499
SL-16 R/B               
1 28353U 04021B   22302.38494681 -.00000214  00000+0 -86920-4 0  9997
2 28353  70.9990 287.3724 0002679 115.3509 244.7891 14.14281072949285
CZ-4B R/B               
1 28415U 04035C   22302.19290088  .00003774  00000+0  23846-3 0  9994
2 28415  97.5015 339.6970 0047926 282.0291  77.5568 15.08708442993758
CZ-2C R/B               
1 28480U 04046B   22302.36358238  .00000129  00000+0  63918-4 0  9995
2 28480  98.0806 279.6500 0141427 185.0694 174.9065 14.25874815933525
ARIANE 5 R/B            
1 28499U 04049H   22302.36067115  .00000672  00000+0  89037-4 0  9992
2 28499  98.1118  60.4300 0091241   2.7525  63.1254 14.80597014963898
CZ-2D R/B               
1 28738U 05024B   22302.02786882  .00005156  00000+0  28127-3 0  9998
2 28738  97.3539 305.6259 0013097  76.9302 283.3392 15.14716210951961
SUZAKU (ASTRO-EII)      
1 28773U 05025A   22301.98722413  .00007534  00000+0  31149-3 0  9992
2 28773  31.3783 148.0381 0004550 287.6450  72.3701 15.22608790955385
ALOS (DAICHI)           
1 28931U 06002A   22302.47241193  .00000823  00000+0  16788-3 0  9996
2 28931  97.9530 262.4429 0000702  53.4973 306.6290 14.63388711894028
H-2A R/B                
1 28932U 06002B   22302.09796268  .00003049  00000+0  27147-3 0  9997
2 28932  98.2759 351.8192 0085860  14.3457 346.0170 14.94093144909992
AKARI (ASTRO-F)         
1 28939U 06005A   22302.20871336  .00055875  00000+0  79899-3 0  9995
2 28939  98.1878  33.5532 0058678 156.8764 203.5148 15.53999656913796
CZ-4B R/B               
1 29093U 06015B   22301.89977596  .00050126  00000+0  44842-3 0  9991
2 29093  97.5752 171.1712 0033378  51.0965 309.3263 15.67474240920399
RESURS-DK 1             
1 29228U 06021A   22302.02159008  .00001294  00000+0  10171-3 0  9994
2 29228  69.9341 148.5451 0006755 237.2881 122.7629 15.03565012902456
GENESIS 1               
1 29252U 06029A   22302.37929911  .00007528  00000+0  32574-3 0  9992
2 29252  64.5225 350.9629 0052506 242.6109 116.9668 15.21916912899349
CZ-4B R/B               
1 29507U 06046C   22302.24562965  .00002582  00000+0  19649-3 0  9995
2 29507  97.7129 331.7483 0044712 141.3462 219.0978 15.02220972874957
CZ-2C R/B               
1 31114U 07010B   22302.41578468  .00000188  00000+0  10649-3 0  9999
2 31114  98.2529 106.3541 0058492 267.2074  92.2407 14.19465468805569
COSMO-SKYMED 1          
1 31598U 07023A   22302.47785891  .00000661  00000+0  89625-4 0  9992
2 31598  97.8889 124.2362 0001337  85.9928 274.1490 14.82151582832818
GENESIS 2               
1 31789U 07028A   22302.35288219  .00007163  00000+0  31897-3 0  9999
2 31789  64.4974  34.5717 0058133 294.4542  65.0525 15.20720860846250
COSMOS 2428             
1 31792U 07029A   22302.32611839 -.00000055  00000+0 -38314-5 0  9997
2 31792  70.9518 259.0755 0010653 216.5684 143.4710 14.12600561790758
SL-16 R/B               
1 31793U 07029B   22302.10667742 -.00000150  00000+0 -53155-4 0  9993
2 31793  70.9767 232.0810 0002374 280.9638  90.1666 14.14488241791764
KORONAS-FOTON           
1 33504U 09003A   22302.38629944  .00003429  00000+0  16718-3 0  9994
2 33504  82.4403  82.2534 0018574 162.3928 197.7954 15.17852225758277
H-2A R/B                
1 38341U 12025E   22302.17240426  .00001497  00000+0  17850-3 0  9998
2 38341  98.4852 166.2258 0054144 337.8909  21.9969 14.84997521565499
CUSAT 2 & FALCON 9 R/B  
1 39271U 13055G   22302.35207513  .00024192  00000+0  49425-3 0  9995
2 39271  80.9575  47.1412 0504415  63.6761 301.5335 14.69150813476381
SHIJIAN-16 (SJ-16)      
1 39358U 13057A   22302.52660605  .00000881  00000+0  10263-3 0  9994
2 39358  74.9759 336.8059 0019170 201.5806 158.4569 14.86404440488918
CZ-2C R/B               
1 39364U 13059B   22302.08783568  .00012800  00000+0  38567-3 0  9999
2 39364  97.1427 350.9424 0039730 210.9542 148.9360 15.33658358500675
SL-4 R/B                
1 39679U 14021B   22302.34162928  .00003721  00000+0  18382-3 0  9993
2 39679  51.6145  52.0661 0162638  64.2752 297.4909 15.09685151469336
ALOS-2                  
1 39766U 14029A   22302.52081643  .00000036  00000+0  11680-4 0  9993
2 39766  97.9226  37.7275 0001456  94.6291 265.5089 14.79472172455458
CZ-2C R/B               
1 40306U 14071B   22302.37987311  .00109596  00000+0  66876-3 0  9999
2 40306  97.4275 283.7890 0005640 183.5206 176.6022 15.77062400447883
SL-27 R/B               
1 40354U 14084B   22302.36059479  .00011414  00000+0  23229-3 0  9996
2 40354  74.7390  36.2951 0031274 148.4489 211.8610 15.45749706441274
YAOGAN-29               
1 41038U 15069A   22302.53599911  .00000366  00000+0  54262-4 0  9995
2 41038  98.0618 303.3984 0002167  60.1755 299.9669 14.80966935374139
ASTRO-H (HITOMI)        
1 41337U 16012A   22302.32674079  .00002128  00000+0  16133-3 0  9994
2 41337  31.0052 289.7486 0012016 330.9217  29.0749 14.99754661367234
HXMT (HUIYAN)           
1 42758U 17034A   22302.50669584  .00003176  00000+0  19858-3 0  9993
2 42758  43.0184 330.7159 0009111  35.3002 115.1463 15.11226008296454
CZ-2C R/B               
1 43521U 18054D   22302.23197245  .00005119  00000+0  25527-3 0  9994
2 43521  35.1526 248.6306 0077781 188.9895 170.9428 15.14286165239965
AEOLUS                  
1 43600U 18066A   22302.31649455  .00131767  00000+0  51980-3 0  9990
2 43600  96.7361 305.9639 0010904 112.6575 247.5852 15.86399246242355
SAOCOM 1A               
1 43641U 18076A   22302.48626316 -.00000515  00000+0 -58175-4 0  9997
2 43641  97.8874 127.2771 0001385  75.8093 284.3149 14.82148175219586
SAOCOM 1B               
1 46265U 20059A   22302.51738522  .00000357  00000+0  51453-4 0  9997
2 46265  97.8874 126.3692 0001302  88.8455 271.2908 14.82158944116981
CSS (TIANHE)            
1 48274U 21035A   22302.56917735  .00022768  00000+0  26050-3 0  9998
2 48274  41.4733 120.1189 0003869 254.9706 168.1259 15.61593398 85780
2022-019U               
1 51842U 22019U   22302.49008712  .00008791  00000+0  32655-3 0  9992
2 51842  97.5496  21.1505 0067136  78.4147  44.6161 15.25651697 37201
SZ-13 MODULE            
1 52260U 21092C   22301.75321917  .00055141  00000+0  33049-3 0  9999
2 52260  41.4769 110.1473 0012187 358.5247   1.5560 15.76806928 30370
CZ-2C R/B               
1 52794U 22058K   22302.32927763  .00004757  00000+0  26003-3 0  9998
2 52794  50.1735 262.0882 0101819 269.4161  89.5124 15.11753626 22535
